ONEWEB-0035             
1 45143U 20008N   26037.05409318  .00000703  00000+0  19783-2 0  9994
2 45143  87.8752  62.4123 0001825  96.6240 263.5096 13.10373081290769
ONEWEB-0036             
1 45144U 20008P   26037.04412565  .00000505  00000+0  14096-2 0  9994
2 45144  87.8763  62.3775 0001981  84.7892 275.3462 13.10375318291199
ONEWEB-0038             
1 45145U 20008Q   26036.93844095  .00000549  00000+0  15133-2 0  9990
2 45145  87.8823  47.1788 0000141 125.3021 234.8120 13.11415873293123
ONEWEB-0039             
1 45146U 20008R   26037.02667879 -.00000380  00000+0 -11255-2 0  9991
2 45146  87.8765  62.3985 0001808  76.6639 283.4690 13.10376438290986
ONEWEB-0040             
1 45147U 20008S   26036.56189688 -.00000571  00000+0 -16729-2 0  9990
2 45147  87.8752  62.5113 0001749  93.8896 266.2431 13.10374279290622
ONEWEB-0043             
1 45149U 20008U   26037.02170240 -.00000541  00000+0 -15864-2 0  9994
2 45149  87.8755  62.4011 0001871  74.9564 285.1770 13.10374292291005
ONEWEB-0044             
1 45150U 20008V   26037.04994048  .00000677  00000+0  19018-2 0  9991
2 45150  87.8762  62.3897 0001733  87.8114 272.3212 13.10377551291300
ONEWEB-0045             
1 45151U 20008W   26037.00951958  .00000528  00000+0  14544-2 0  9995
2 45151  87.8826  47.1508 0001767  87.1197 273.0133 13.11418752293215
ONEWEB-0047             
1 45152U 20008X   26037.04330346  .00000025  00000+0  35274-4 0  9999
2 45152  87.8751  62.3964 0001794  94.4997 265.6335 13.10378323291023
ONEWEB-0048             
1 45153U 20008Y   26037.03831018  .00000219  00000+0  59159-3 0  9993
2 45153  87.8755  62.4250 0001802  95.2605 264.8728 13.10377506290637
ONEWEB-0049             
1 45154U 20008Z   26036.96514813  .00000387  00000+0  10714-2 0  9995
2 45154  87.8754  62.4278 0002275  87.7435 272.3953 13.10376164290845
ONEWEB-0051             
1 45155U 20008AA  26037.00781784  .00000532  00000+0  14642-2 0  9991
2 45155  87.8823  47.1651 0001818  89.5611 270.5726 13.11417294293893
ONEWEB-0052             
1 45156U 20008AB  26037.03582636  .00000130  00000+0  33488-3 0  9994
2 45156  87.8764  62.3793 0002306  86.2674 273.8717 13.10375601290763
ONEWEB-0053             
1 45157U 20008AC  26036.56023098 -.00000796  00000+0 -23180-2 0  9991
2 45157  87.8751  62.5171 0001988  79.5631 280.5720 13.10375164290678
ONEWEB-0054             
1 45158U 20008AD  26036.59511078  .00000572  00000+0  16014-2 0  9993
2 45158  87.8758  62.4827 0001952  91.9877 268.1474 13.10372301290795
ONEWEB-0056             
1 45159U 20008AE  26037.03416243  .00000007  00000+0 -17458-4 0  9991
2 45159  87.8762  62.3952 0002036  93.8323 266.3038 13.10375755291007
ONEWEB-0057             
1 45160U 20008AF  26037.04177342  .00000367  00000+0  10160-2 0  9997
2 45160  87.8759  62.4045 0001935  85.8458 274.2890 13.10376343291172
