[{"OBJECT_NAME":"ONEWEB-0035","OBJECT_ID":"2020-008N","EPOCH":"2026-02-06T01:17:53.650752","MEAN_MOTION":13.10373081,"ECCENTRICITY":0.00018257,"INCLINATION":87.8752,"RA_OF_ASC_NODE":62.4123,"ARG_OF_PERICENTER":96.624,"MEAN_ANOMALY":263.5096,"EPHEMERIS_TYPE":0,"CLASSIFICATION_TYPE":"U","NORAD_CAT_ID":45143,"ELEMENT_SET_NO":999,"REV_AT_EPOCH":29076,"BSTAR":0.0019783054,"MEAN_MOTION_DOT":7.03e-6,"MEAN_MOTION_DDOT":0},{"OBJECT_NAME":"ONEWEB-0036","OBJECT_ID":"2020-008P","EPOCH":"2026-02-06T01:03:32.456160","MEAN_MOTION":13.10375318,"ECCENTRICITY":0.00019819,"INCLINATION":87.8763,"RA_OF_ASC_NODE":62.3775,"ARG_OF_PERICENTER":84.7892,"MEAN_ANOMALY":275.3462,"EPHEMERIS_TYPE":0,"CLASSIFICATION_TYPE":"U","NORAD_CAT_ID":45144,"ELEMENT_SET_NO":999,"REV_AT_EPOCH":29119,"BSTAR":0.001409604,"MEAN_MOTION_DOT":5.05e-6,"MEAN_MOTION_DDOT":0},{"OBJECT_NAME":"ONEWEB-0038","OBJECT_ID":"2020-008Q","EPOCH":"2026-02-05T22:31:21.298080","MEAN_MOTION":13.11415873,"ECCENTRICITY":1.41e-5,"INCLINATION":87.8823,"RA_OF_ASC_NODE":47.1788,"ARG_OF_PERICENTER":125.3021,"MEAN_ANOMALY":234.812,"EPHEMERIS_TYPE":0,"CLASSIFICATION_TYPE":"U","NORAD_CAT_ID":45145,"ELEMENT_SET_NO":999,"REV_AT_EPOCH":29312,"BSTAR":0.0015133,"MEAN_MOTION_DOT":5.49e-6,"MEAN_MOTION_DDOT":0},{"OBJECT_NAME":"ONEWEB-0039","OBJECT_ID":"2020-008R","EPOCH":"2026-02-06T00:38:25.047456","MEAN_MOTION":13.10376438,"ECCENTRICITY":0.00018087,"INCLINATION":87.8765,"RA_OF_ASC_NODE":62.3985,"ARG_OF_PERICENTER":76.6639,"MEAN_ANOMALY":283.469,"EPHEMERIS_TYPE":0,"CLASSIFICATION_TYPE":"U","NORAD_CAT_ID":45146,"ELEMENT_SET_NO":999,"REV_AT_EPOCH":29098,"BSTAR":-0.0011254745,"MEAN_MOTION_DOT":-3.8e-6,"MEAN_MOTION_DDOT":0},{"OBJECT_NAME":"ONEWEB-0040","OBJECT_ID":"2020-008S","EPOCH":"2026-02-05T13:29:07.890432","MEAN_MOTION":13.10374279,"ECCENTRICITY":0.0001749,"INCLINATION":87.8752,"RA_OF_ASC_NODE":62.5113,"ARG_OF_PERICENTER":93.8896,"MEAN_ANOMALY":266.2431,"EPHEMERIS_TYPE":0,"CLASSIFICATION_TYPE":"U","NORAD_CAT_ID":45147,"ELEMENT_SET_NO":999,"REV_AT_EPOCH":29062,"BSTAR":-0.0016729,"MEAN_MOTION_DOT":-5.71e-6,"MEAN_MOTION_DDOT":0},{"OBJECT_NAME":"ONEWEB-0043","OBJECT_ID":"2020-008U","EPOCH":"2026-02-06T00:31:15.087360","MEAN_MOTION":13.10374292,"ECCENTRICITY":0.00018718,"INCLINATION":87.8755,"RA_OF_ASC_NODE":62.4011,"ARG_OF_PERICENTER":74.9564,"MEAN_ANOMALY":285.177,"EPHEMERIS_TYPE":0,"CLASSIFICATION_TYPE":"U","NORAD_CAT_ID":45149,"ELEMENT_SET_NO":999,"REV_AT_EPOCH":29100,"BSTAR":-0.0015864114,"MEAN_MOTION_DOT":-5.41e-6,"MEAN_MOTION_DDOT":0},{"OBJECT_NAME":"ONEWEB-0044","OBJECT_ID":"2020-008V","EPOCH":"2026-02-06T01:11:54.857472","MEAN_MOTION":13.10377551,"ECCENTRICITY":0.00017338,"INCLINATION":87.8762,"RA_OF_ASC_NODE":62.3897,"ARG_OF_PERICENTER":87.8114,"MEAN_ANOMALY":272.3212,"EPHEMERIS_TYPE":0,"CLASSIFICATION_TYPE":"U","NORAD_CAT_ID":45150,"ELEMENT_SET_NO":999,"REV_AT_EPOCH":29130,"BSTAR":0.0019018228,"MEAN_MOTION_DOT":6.77e-6,"MEAN_MOTION_DDOT":0},{"OBJECT_NAME":"ONEWEB-0045","OBJECT_ID":"2020-008W","EPOCH":"2026-02-06T00:13:42.491712","MEAN_MOTION":13.11418752,"ECCENTRICITY":0.00017672,"INCLINATION":87.8826,"RA_OF_ASC_NODE":47.1508,"ARG_OF_PERICENTER":87.1197,"MEAN_ANOMALY":273.0133,"EPHEMERIS_TYPE":0,"CLASSIFICATION_TYPE":"U","NORAD_CAT_ID":45151,"ELEMENT_SET_NO":999,"REV_AT_EPOCH":29321,"BSTAR":0.001454357,"MEAN_MOTION_DOT":5.28e-6,"MEAN_MOTION_DDOT":0},{"OBJECT_NAME":"ONEWEB-0047","OBJECT_ID":"2020-008X","EPOCH":"2026-02-06T01:02:21.418944","MEAN_MOTION":13.10378323,"ECCENTRICITY":0.00017949,"INCLINATION":87.8751,"RA_OF_ASC_NODE":62.3964,"ARG_OF_PERICENTER":94.4997,"MEAN_ANOMALY":265.6335,"EPHEMERIS_TYPE":0,"CLASSIFICATION_TYPE":"U","NORAD_CAT_ID":45152,"ELEMENT_SET_NO":999,"REV_AT_EPOCH":29102,"BSTAR":3.5274347e-5,"MEAN_MOTION_DOT":2.5e-7,"MEAN_MOTION_DDOT":0},{"OBJECT_NAME":"ONEWEB-0048","OBJECT_ID":"2020-008Y","EPOCH":"2026-02-06T00:55:09.999552","MEAN_MOTION":13.10377506,"ECCENTRICITY":0.00018025,"INCLINATION":87.8755,"RA_OF_ASC_NODE":62.425,"ARG_OF_PERICENTER":95.2605,"MEAN_ANOMALY":264.8728,"EPHEMERIS_TYPE":0,"CLASSIFICATION_TYPE":"U","NORAD_CAT_ID":45153,"ELEMENT_SET_NO":999,"REV_AT_EPOCH":29063,"BSTAR":0.0005915867,"MEAN_MOTION_DOT":2.19e-6,"MEAN_MOTION_DDOT":0},{"OBJECT_NAME":"ONEWEB-0049","OBJECT_ID":"2020-008Z","EPOCH":"2026-02-05T23:09:48.798432","MEAN_MOTION":13.10376164,"ECCENTRICITY":0.0002275,"INCLINATION":87.8754,"RA_OF_ASC_NODE":62.4278,"ARG_OF_PERICENTER":87.7435,"MEAN_ANOMALY":272.3953,"EPHEMERIS_TYPE":0,"CLASSIFICATION_TYPE":"U","NORAD_CAT_ID":45154,"ELEMENT_SET_NO":999,"REV_AT_EPOCH":29084,"BSTAR":0.0010714,"MEAN_MOTION_DOT":3.87e-6,"MEAN_MOTION_DDOT":0},{"OBJECT_NAME":"ONEWEB-0051","OBJECT_ID":"2020-008AA","EPOCH":"2026-02-06T00:11:15.461376","MEAN_MOTION":13.11417294,"ECCENTRICITY":0.00018189,"INCLINATION":87.8823,"RA_OF_ASC_NODE":47.1651,"ARG_OF_PERICENTER":89.5611,"MEAN_ANOMALY":270.5726,"EPHEMERIS_TYPE":0,"CLASSIFICATION_TYPE":"U","NORAD_CAT_ID":45155,"ELEMENT_SET_NO":999,"REV_AT_EPOCH":29389,"BSTAR":0.0014642291,"MEAN_MOTION_DOT":5.32e-6,"MEAN_MOTION_DDOT":0},{"OBJECT_NAME":"ONEWEB-0052","OBJECT_ID":"2020-008AB","EPOCH":"2026-02-06T00:51:35.397504","MEAN_MOTION":13.10375601,"ECCENTRICITY":0.00023062,"INCLINATION":87.8764,"RA_OF_ASC_NODE":62.3793,"ARG_OF_PERICENTER":86.2674,"MEAN_ANOMALY":273.8717,"EPHEMERIS_TYPE":0,"CLASSIFICATION_TYPE":"U","NORAD_CAT_ID":45156,"ELEMENT_SET_NO":999,"REV_AT_EPOCH":29076,"BSTAR":0.00033488101,"MEAN_MOTION_DOT":1.3e-6,"MEAN_MOTION_DDOT":0},{"OBJECT_NAME":"ONEWEB-0053","OBJECT_ID":"2020-008AC","EPOCH":"2026-02-05T13:26:43.956672","MEAN_MOTION":13.10375164,"ECCENTRICITY":0.0001988,"INCLINATION":87.8751,"RA_OF_ASC_NODE":62.5171,"ARG_OF_PERICENTER":79.5631,"MEAN_ANOMALY":280.572,"EPHEMERIS_TYPE":0,"CLASSIFICATION_TYPE":"U","NORAD_CAT_ID":45157,"ELEMENT_SET_NO":999,"REV_AT_EPOCH":29067,"BSTAR":-0.002318,"MEAN_MOTION_DOT":-7.96e-6,"MEAN_MOTION_DDOT":0},{"OBJECT_NAME":"ONEWEB-0054","OBJECT_ID":"2020-008AD","EPOCH":"2026-02-05T14:16:57.571392","MEAN_MOTION":13.10372301,"ECCENTRICITY":0.0001952,"INCLINATION":87.8758,"RA_OF_ASC_NODE":62.4827,"ARG_OF_PERICENTER":91.9877,"MEAN_ANOMALY":268.1474,"EPHEMERIS_TYPE":0,"CLASSIFICATION_TYPE":"U","NORAD_CAT_ID":45158,"ELEMENT_SET_NO":999,"REV_AT_EPOCH":29079,"BSTAR":0.0016014,"MEAN_MOTION_DOT":5.72e-6,"MEAN_MOTION_DDOT":0},{"OBJECT_NAME":"ONEWEB-0056","OBJECT_ID":"2020-008AE","EPOCH":"2026-02-06T00:49:11.633952","MEAN_MOTION":13.10375755,"ECCENTRICITY":0.00020362,"INCLINATION":87.8762,"RA_OF_ASC_NODE":62.3952,"ARG_OF_PERICENTER":93.8323,"MEAN_ANOMALY":266.3038,"EPHEMERIS_TYPE":0,"CLASSIFICATION_TYPE":"U","NORAD_CAT_ID":45159,"ELEMENT_SET_NO":999,"REV_AT_EPOCH":29100,"BSTAR":-1.7458173e-5,"MEAN_MOTION_DOT":7.0e-8,"MEAN_MOTION_DDOT":0},{"OBJECT_NAME":"ONEWEB-0057","OBJECT_ID":"2020-008AF","EPOCH":"2026-02-06T01:00:09.223488","MEAN_MOTION":13.10376343,"ECCENTRICITY":0.00019359,"INCLINATION":87.8759,"RA_OF_ASC_NODE":62.4045,"ARG_OF_PERICENTER":85.8458,"MEAN_ANOMALY":274.289,"EPHEMERIS_TYPE":0,"CLASSIFICATION_TYPE":"U","NORAD_CAT_ID":45160,"ELEMENT_SET_NO":999,"REV_AT_EPOCH":29117,"BSTAR":0.0010159973,"MEAN_MOTION_DOT":3.67e-6,"MEAN_MOTION_DDOT":0}]
